satNo,name,line1,line2,inclination,apogee,raan,argument_of_perigee,eccentricity,mean_motion,hdbscan_labels
65247,STARLINK-34923,1 65247U 25179N   26027.08474609  .00008761  00000-0  61046-3 0  9995,2 65247  97.5984  71.8808 0001206 130.0795 230.0537 15.05660520 25607,97.5984,557.4513556457152,71.8808,130.0795,0.0001206,15.0566052,304
65248,STARLINK-34962,1 65248U 25179P   26027.12352183  .00006135  00000-0  42896-3 0  9998,2 65248  97.6055  71.9888 0001195  88.9247 271.2117 15.05655185 25575,97.6055,557.4601016651271,71.9888,88.9247,0.0001195,15.05655185,303
65249,STARLINK-34925,1 65249U 25179Q   26027.10413465  .00020508  00000-0  14222-2 0  9999,2 65249  97.6015  72.0172 0001000  69.9306 290.2028 15.05629913 25561,97.6015,557.4025405821307,72.0172,69.9306,0.0001,15.05629913,303
65250,STARLINK-34973,1 65250U 25179R   26026.56416600  .00008973  00000-0  62502-3 0  9991,2 65250  97.6029  71.5006 0000426 120.9923 239.1345 15.05666630 25473,97.6029,556.8922592706597,71.5006,120.9923,4.26e-05,15.0566663,-1
65251,STARLINK-34989,1 65251U 25179S   26027.09861728  .00002596  00000-0  18418-3 0  9998,2 65251  97.6029  72.0221 0001467  86.8731 273.2664 15.05620877 25737,97.6029,557.7537864836547,72.0221,86.8731,0.0001467,15.05620877,303
65252,STARLINK-34961,1 65252U 25179T   26027.11798604  .00006511  00000-0  45506-3 0  9993,2 65252  97.6054  71.9953 0001140  89.3730 270.7628 15.05649771 25579,97.6054,557.4386084436309,71.9953,89.373,0.000114,15.05649771,303
65253,STARLINK-34933,1 65253U 25179U   26027.07644225  .00013241  00000-0  91976-3 0  9998,2 65253  97.6062  71.8990 0002397 109.2945 250.8541 15.05664219 25559,97.6062,558.2650858175438,71.899,109.2945,0.0002397,15.05664219,304
65254,STARLINK-34979,1 65254U 25179V   26027.08197775  .00014531  00000-0  10089-2 0  9991,2 65254  97.6026  71.8895 0001598 124.8788 235.2589 15.05659667 25554,97.6026,557.7255350702219,71.8895,124.8788,0.0001598,15.05659667,304
65255,STARLINK-34987,1 65255U 25179W   26026.93799378  .00011860  00000-0  82439-3 0  9993,2 65255  97.6050  71.7738 0003343  85.9932 274.1677 15.05666200 25523,97.605,558.914358756789,71.7738,85.9932,0.0003343,15.056662,-1
65256,STARLINK-34971,1 65256U 25179X   26027.11243492  .00036915  00000-0  25458-2 0  9991,2 65256  97.6040  72.0035 0001063 122.5784 237.5545 15.05702224 25295,97.604,557.2243586976529,72.0035,122.5784,0.0001063,15.05702224,303
65257,STARLINK-34966,1 65257U 25179Y   26027.10691216  .00012169  00000-0  84603-3 0  9995,2 65257  97.6098  72.0140 0001555  87.5689 272.5715 15.05655101 25677,97.6098,557.7097541263848,72.014,87.5689,0.0001555,15.05655101,303
65258,STARLINK-34980,1 65258U 25179Z   26027.12628932  .00000316  00000-0  26101-4 0  9994,2 65258  97.6047  71.9828 0001089  69.6824 290.4520 15.05653726 25569,97.6047,557.3911445664241,71.9828,69.6824,0.0001089,15.05653726,303
65273,STARLINK-34922,1 65273U 25184A   26027.15868400  .00009192  00000-0  63992-3 0  9995,2 65273  97.6065  81.7510 0000452 111.7396 248.3879 15.05679377 25052,97.6065,556.8711700928137,81.751,111.7396,4.52e-05,15.05679377,358
65274,STARLINK-34904,1 65274U 25184B   26027.11995013  .00019624  00000-0  13601-2 0  9995,2 65274  97.6040  81.6500 0001539  77.5658 282.5741 15.05658683 25045,97.604,557.687680877367,81.65,77.5658,0.0001539,15.05658683,359
65275,STARLINK-34954,1 65275U 25184C   26027.13931476  .00009296  00000-0  64747-3 0  9993,2 65275  97.6033  81.6221 0001826  90.8557 269.2879 15.05657129 25041,97.6033,557.8912711846083,81.6221,90.8557,0.0001826,15.05657129,359
65276,STARLINK-34968,1 65276U 25184D   26027.10608464  .00012536  00000-0  87120-3 0  9990,2 65276  97.6036  81.6704 0001401 100.3490 259.7895 15.05663231 25046,97.6036,557.5781273760432,81.6704,100.349,0.0001401,15.05663231,359
65277,STARLINK-34935,1 65277U 25184E   26027.15039871  .00010645  00000-0  74075-3 0  9990,2 65277  97.6075  81.7660 0001489  37.2451 322.8878 15.05655126 25051,97.6075,557.6639550558301,81.766,37.2451,0.0001489,15.05655126,358
65278,STARLINK-35000,1 65278U 25184F   26027.12823234  .00007093  00000-0  49555-3 0  9990,2 65278  97.6027  81.6356 0001722  90.1795 269.9629 15.05631815 25042,97.6027,557.8968859028099,81.6356,90.1795,0.0001722,15.05631815,359
65279,STARLINK-35023,1 65279U 25184G   26027.11439276  .00004820  00000-0  33802-3 0  9992,2 65279  97.6054  81.6593 0001430  95.6842 264.4548 15.05650174 25044,97.6054,557.6382739211153,81.6593,95.6842,0.000143,15.05650174,359
65280,STARLINK-35001,1 65280U 25184H   26027.16423658  .00008132  00000-0  56701-3 0  9999,2 65280  97.6035  81.7471 0001083 104.6950 255.4397 15.05656836 25050,97.6035,557.3774473903496,81.7471,104.695,0.0001083,15.05656836,358
65281,STARLINK-35010,1 65281U 25184J   26027.15593306  .00004470  00000-0  31384-3 0  9998,2 65281  97.6081  81.7555 0001605  99.5162 260.6246 15.05649110 25050,97.6081,557.7627719941028,81.7555,99.5162,0.0001605,15.0564911,358
65282,STARLINK-35021,1 65282U 25184K   26027.14485754  .00006068  00000-0  42434-3 0  9998,2 65282  97.6081  81.7727 0002277 124.6254 235.5187 15.05655554 25009,97.6081,558.2085393526191,81.7727,124.6254,0.0002277,15.05655554,358
65283,STARLINK-35015,1 65283U 25184L   26027.13377351  .00009753  00000-0  67914-3 0  9995,2 65283  97.6042  81.6308 0001618  91.4950 268.6462 15.05651876 25043,97.6042,557.7632921413295,81.6308,91.495,0.0001618,15.05651876,359
65284,STARLINK-35006,1 65284U 25184M   26027.10331575  .00010495  00000-0  73032-3 0  9994,2 65284  97.6042  81.6726 0001759 217.8776 142.2327 15.05658051 25043,97.6042,557.8420274711904,81.6726,217.8776,0.0001759,15.05658051,359
65285,STARLINK-34995,1 65285U 25184N   26027.11715331 -.00007142  00000-0 -49128-3 0  9998,2 65285  97.6033  81.6520 0001490  90.5629 269.5769 15.05647141 25042,97.6033,557.6891446336797,81.652,90.5629,0.000149,15.05647141,359
65286,STARLINK-35048,1 65286U 25184P   26027.10885408  .00019002  00000-0  13171-2 0  9995,2 65286  97.6055  81.6672 0001282 100.2031 259.9340 15.05665419 24999,97.6055,557.488976618912,81.6672,100.2031,0.0001282,15.05665419,359
65287,STARLINK-35007,1 65287U 25184Q   26027.12546597  .00007291  00000-0  50897-3 0  9995,2 65287  97.6046  81.6417 0001101  95.9478 264.1874 15.05653325 24984,97.6046,557.4006878888625,81.6417,95.9478,0.0001101,15.05653325,359
65288,STARLINK-35018,1 65288U 25184R   26027.16146670  .00009844  00000-0  68545-3 0  9993,2 65288  97.6045  81.7493 0000588 247.1534 112.9631 15.05654623 25053,97.6045,557.0413183588628,81.7493,247.1534,5.88e-05,15.05654623,358
65289,STARLINK-34845,1 65289U 25184S   26027.15315576  .00011606  00000-0  80698-3 0  9998,2 65289  97.6066  81.7612 0001747 127.9327 232.2058 15.05662933 25055,97.6066,557.8187368298574,81.7612,127.9327,0.0001747,15.05662933,358
65290,STARLINK-34984,1 65290U 25184T   26026.10366948  .00006294  00000-0  43979-3 0  9991,2 65290  97.6040  80.6946 0000853  93.4325 266.6999 15.05668563 24890,97.604,557.1821379925674,80.6946,93.4325,8.53e-05,15.05668563,348
65291,STARLINK-35002,1 65291U 25184U   26027.13654303  .00008507  00000-0  59290-3 0  9993,2 65291  97.6037  81.6263 0001335  96.6145 263.5234 15.05659646 25049,97.6037,557.5434031269588,81.6263,96.6145,0.0001335,15.05659646,359
65292,STARLINK-35017,1 65292U 25184V   26027.14762718  .00005026  00000-0  35226-3 0  9991,2 65292  97.6049  81.7652 0001575  93.1689 266.9718 15.05656103 25002,97.6049,557.7205353907198,81.7652,93.1689,0.0001575,15.05656103,358
65293,STARLINK-34951,1 65293U 25184W   26027.11162149  .00005986  00000-0  41864-3 0  9991,2 65293  97.6036  81.6611 0000980  98.3567 261.7771 15.05658630 25047,97.6036,557.3005894210227,81.6611,98.3567,9.8e-05,15.0565863,359
65294,STARLINK-34613,1 65294U 25184X   26027.12269947  .00002833  00000-0  20047-3 0  9995,2 65294  97.6049  81.6476 0001510  95.2208 264.9191 15.05648412 25047,97.6049,557.6991006827401,81.6476,95.2208,0.000151,15.05648412,359
65295,STARLINK-34834,1 65295U 25184Y   26027.14207876  .00002339  00000-0  16629-3 0  9993,2 65295  97.6054  81.6216 0001585  97.9420 262.1987 15.05649577 25049,97.6054,557.7474839880466,81.6216,97.942,0.0001585,15.05649577,359
65296,STARLINK-34872,1 65296U 25184Z   26027.13099851  .00022067  00000-0  15279-2 0  9994,2 65296  97.6063  81.6347 0001369 101.7218 258.4163 15.05672489 25046,97.6063,557.5275577084823,81.6347,101.7218,0.0001369,15.05672489,359
65297,DRESDEN,1 65297U 25185A   26027.18620059  .00016676  00000-0  24048-2 0  9994,2 65297  97.9655 112.1458 0016571 180.2563 179.8642 14.76251363 23009,97.9655,659.9505048988359,112.1458,180.2563,0.0016571,14.76251363,328
65298,FOURIER,1 65298U 25185B   26027.18494478  .00019254  00000-0  27743-2 0  9999,2 65298  97.9673 112.1703 0016795 179.1995 180.9245 14.76252441 23018,97.9673,660.1043147676149,112.1703,179.1995,0.0016795,14.76252441,328
65299,STARK,1 65299U 25185C   26027.17056270  .00003463  00000-0  49692-3 0  9996,2 65299  97.9635 112.1360 0015036 183.4739 176.6369 14.77068210 23005,97.9635,656.2810309329359,112.136,183.4739,0.0015036,14.7706821,328
65301,BASIL,1 65301U 25185E   26027.18374184  .00009085  00000-0  13153-2 0  9996,2 65301  97.9671 112.1717 0016733 176.8823 183.2494 14.76240323 23010,97.9671,660.0992721612221,112.1717,176.8823,0.0016733,14.76240323,328
65302,DOJO,1 65302U 25185F   26027.18249718  .00007427  00000-0  10772-2 0  9993,2 65302  97.9697 112.1759 0016340 178.7770 181.3482 14.76229367 23012,97.9697,659.8581982049141,112.1759,178.777,0.001634,14.76229367,328
65304,DRAGON CRS-33,1 65304U 25186A   26027.14328214  .00011252  00000-0  21756-3 0  9997,2 65304  51.6321 277.7306 0011150  34.3982 325.7726 15.48216781   114,51.6321,436.66165572709497,277.7306,34.3982,0.001115,15.48216781,959
65315,PELICAN-3,1 65315U 25188A   26027.17167476  .00003601  00000-0  90237-4 0  9995,2 65315  97.2301 105.1807 0009314 202.8361 157.2473 15.40667590 23608,97.2301,457.629089749394,105.1807,202.8361,0.0009314,15.4066759,-1
